COSMOS 2425 (716)       
1 29670U 06062A   20180.45611531 -.00000012  00000-0  00000-0 0  9999
2 29670  64.9531 267.4203 0022912 342.1518  21.9008  2.13107440105130
COSMOS 2433 (720)       
1 32275U 07052A   20180.52598890 -.00000042  00000-0  10000-3 0  9991
2 32275  65.9834  28.5557 0000679 231.6658  11.3074  2.13104346 98648
COSMOS 2432 (719)       
1 32276U 07052B   20180.75640697 -.00000042  00000-0  10000-3 0  9990
2 32276  65.9975  28.6332 0009832 340.4094  29.5157  2.13103786 98651
COSMOS 2434 (721)       
1 32393U 07065A   20181.36973063 -.00000012  00000-0  00000+0 0  9990
2 32393  64.5681 266.0096 0002968 126.8348 291.0613  2.13103171 97375
COSMOS 2436 (723)       
1 32395U 07065C   20180.77217012 -.00000011  00000-0  10000-3 0  9995
2 32395  64.5778 266.0813 0013136 358.9086  96.7984  2.13103110 97292
COSMOS 2456 (730)       
1 36111U 09070A   20181.09697252  .00000070  00000-0  00000-0 0  9997
2 36111  64.2316 145.6933 0006158 306.5221  75.5653  2.13102879 82033
COSMOS 2457 (733)       
1 36112U 09070B   20181.28187282  .00000068  00000-0  00000-0 0  9993
2 36112  64.2136 145.5799 0004648 195.3618  91.7819  2.13101561 82030
COSMOS 2459 (731)       
1 36400U 10007A   20181.11091066 -.00000042  00000-0  10000-3 0  9998
2 36400  65.8850  27.5030 0025506 354.5274 192.6535  2.13105331 80381
COSMOS 2461 (735)       
1 36401U 10007B   20180.32804927 -.00000042  00000-0  10000-3 0  9999
2 36401  65.8838  27.4955 0009013  68.8947 145.6603  2.13102183 80364
COSMOS 2460 (732)       
1 36402U 10007C   20181.19087345 -.00000042  00000-0  10000-3 0  9993
2 36402  65.8695  27.4284 0002227  83.2639 112.2939  2.13101418 80384
COSMOS 2464 (736)       
1 37139U 10041C   20180.56345646 -.00000010  00000-0  00000+0 0  9990
2 37139  64.1688 265.4718 0025151  10.3507  12.5204  2.13100821 76444
COSMOS 2471 (701K)      
1 37372U 11009A   20181.43418632 -.00000042  00000-0  00000+0 0  9992
2 37372  65.8659  27.3612 0007562 222.9997 319.2936  2.13107484 72668
COSMOS 2476 (744)       
1 37867U 11064A   20181.18193772  .00000072  00000-0  00000-0 0  9992
2 37867  64.5302 146.7641 0021502 243.0085 105.2144  2.13101941 67376
COSMOS 2477 (745)       
1 37868U 11064B   20180.88042323  .00000075  00000-0  00000-0 0  9997
2 37868  64.5382 146.8305 0019101 244.6183  50.7923  2.13101881 67328
COSMOS 2475 (743)       
1 37869U 11064C   20180.94527558  .00000075  00000-0  00000-0 0  9993
2 37869  64.5463 146.8302 0023453 263.3806  39.1656  2.13102154 67330
COSMOS 2485 (747)       
1 39155U 13019A   20181.08318021  .00000074  00000-0  00000-0 0  9993
2 39155  64.6977 147.0389 0021873 238.6887  78.3382  2.13102030 55844
COSMOS 2492 (754)       
1 39620U 14012A   20180.32389998 -.00000042  00000-0  10000-3 0  9991
2 39620  65.7563  27.2374 0012836 333.9104 155.6899  2.13103389 48782
COSMOS 2500 (755)       
1 40001U 14032A   20180.81444927 -.00000043  00000-0  00000+0 0  9992
2 40001  65.6993  27.1368 0005241 186.8544 179.6104  2.13102794 47019
COSMOS 2501 (702K)      
1 40315U 14075A   20181.49415385 -.00000013  00000-0  00000+0 0  9995
2 40315  63.8860 266.3824 0017155 207.0874 115.7529  2.13098781 43426
COSMOS 2514 (751)       
1 41330U 16008A   20181.24314941 -.00000043  00000-0  00000+0 0  9993
2 41330  65.5022  26.9920 0008286 205.7054 312.0835  2.13103062 34184
COSMOS 2516 (753)       
1 41554U 16032A   20181.01394233 -.00000013  00000-0  00000-0 0  9993
2 41554  64.1099 266.4722 0013721 216.4781  16.2973  2.13101772 31783
COSMOS 2522 (752)       
1 42939U 17055A   20181.09366697 -.00000013  00000-0  00000-0 0  9998
2 42939  64.3413 266.6518 0008058 240.6208 279.8882  2.13101921 21543
COSMOS 2527 (756)       
1 43508U 18053A   20181.21618573  .00000072  00000-0  00000-0 0  9991
2 43508  64.8618 146.8846 0009168 244.1227  42.2020  2.13102644 15838
COSMOS 2529 (757)       
1 43687U 18086A   20180.80965094 -.00000013  00000-0  00000+0 0  9997
2 43687  64.5571 266.7863 0009989 265.9062 352.3391  2.13102119 12842
COSMOS 2534 (758)       
1 44299U 19030A   20180.95549428 -.00000013  00000-0  00000+0 0  9992
2 44299  64.6262 266.5985 0012797 285.6175 219.5628  2.13102113  8495
COSMOS 2544 (759)       
1 44850U 19088A   20181.14906331  .00000073  00000-0  00000+0 0  9995
2 44850  64.8468 146.7533 0013856 269.1374   9.7696  2.13102385  4278
COSMOS 2545 (760)       
1 45358U 20018A   20180.99974088 -.00000045  00000-0  00000-0 0  9991
2 45358  64.8298  28.2018 0006871 251.0226 123.7476  2.13102965  2220
